STARLINK-4522           
1 53388U 22097A   26068.52470859  .00000454  00000+0  46594-4 0  9993
2 53388  53.2200 124.8663 0001689 108.9710 251.1465 15.08840427198822
MUSAT-2                 
1 59099U 24043B   26068.91945897  .00010059  00000+0  67214-3 0  9996
2 59099  97.8438 205.4399 0006495 314.3478  45.7216 15.07177436110131
