[{"OBJECT_NAME":"STARLINK-4522","OBJECT_ID":"2022-097A","EPOCH":"2026-03-09T12:35:34.822176","MEAN_MOTION":15.08840427,"ECCENTRICITY":0.0001689,"INCLINATION":53.22,"RA_OF_ASC_NODE":124.8663,"ARG_OF_PERICENTER":108.971,"MEAN_ANOMALY":251.1465,"EPHEMERIS_TYPE":0,"CLASSIFICATION_TYPE":"U","NORAD_CAT_ID":53388,"ELEMENT_SET_NO":999,"REV_AT_EPOCH":19882,"BSTAR":4.6594e-5,"MEAN_MOTION_DOT":4.54e-6,"MEAN_MOTION_DDOT":0},{"OBJECT_NAME":"MUSAT-2","OBJECT_ID":"2024-043B","EPOCH":"2026-03-09T22:04:01.255008","MEAN_MOTION":15.07177436,"ECCENTRICITY":0.0006495,"INCLINATION":97.8438,"RA_OF_ASC_NODE":205.4399,"ARG_OF_PERICENTER":314.3478,"MEAN_ANOMALY":45.7216,"EPHEMERIS_TYPE":0,"CLASSIFICATION_TYPE":"U","NORAD_CAT_ID":59099,"ELEMENT_SET_NO":999,"REV_AT_EPOCH":11013,"BSTAR":0.00067214198,"MEAN_MOTION_DOT":0.00010059,"MEAN_MOTION_DDOT":0}]
